[{"OBJECT_NAME":"STARLINK-5169","OBJECT_ID":"2022-136K","EPOCH":"2026-03-09T21:58:33.961440","MEAN_MOTION":15.08832508,"ECCENTRICITY":0.00014574,"INCLINATION":53.2191,"RA_OF_ASC_NODE":312.7664,"ARG_OF_PERICENTER":91.4758,"MEAN_ANOMALY":268.6401,"EPHEMERIS_TYPE":0,"CLASSIFICATION_TYPE":"U","NORAD_CAT_ID":54060,"ELEMENT_SET_NO":999,"REV_AT_EPOCH":18730,"BSTAR":6.7009844e-5,"MEAN_MOTION_DOT":7.78e-6,"MEAN_MOTION_DDOT":0},{"OBJECT_NAME":"POSAT-2","OBJECT_ID":"2025-009DR","EPOCH":"2026-03-09T23:15:20.314368","MEAN_MOTION":15.10404492,"ECCENTRICITY":0.00077103,"INCLINATION":97.4906,"RA_OF_ASC_NODE":146.0095,"ARG_OF_PERICENTER":126.4226,"MEAN_ANOMALY":233.7715,"EPHEMERIS_TYPE":0,"CLASSIFICATION_TYPE":"U","NORAD_CAT_ID":63488,"ELEMENT_SET_NO":999,"REV_AT_EPOCH":5165,"BSTAR":0.0010942248,"MEAN_MOTION_DOT":0.00017957,"MEAN_MOTION_DDOT":0}]
